INTELSAT 16 (IS-16)     
1 36397U 10006A   17184.23760424 -.00000293  00000-0  00000-0 0  9999
2 36397   0.0187  69.4728 0001875  22.4891 216.9240  1.00271973 27079
GOES 15                 
1 36411U 10008A   17183.59622149  .00000080  00000-0  00000-0 0  9990
2 36411   0.2313 102.0050 0002304  60.1548 197.8370  1.00274089 26887
ECHOSTAR 14             
1 36499U 10010A   17183.57754233 -.00000010  00000-0  00000-0 0  9991
2 36499   0.0173 342.1476 0002963 118.9949 268.6564  1.00273505 13770
SES-1                   
1 36516U 10016A   17184.16368678 -.00000123  00000-0  00000-0 0  9992
2 36516   0.0190 332.8479 0002633 109.2830 157.1637  1.00272582 26258
ASTRA 3B                
1 36581U 10021A   17184.03590944  .00000128  00000-0  00000-0 0  9993
2 36581   0.0509 318.3942 0002930 154.5360 204.7163  1.00272413 25849
COMSATBW-2              
1 36582U 10021B   17184.23586674  .00000079  00000-0  00000-0 0  9996
2 36582   0.0481 252.2579 0001918 209.5714 277.7109  1.00269822 26177
BEIDOU G3               
1 36590U 10024A   17183.71538459 -.00000366  00000-0  00000-0 0  9998
2 36590   1.3540  22.8913 0005754 319.9528 306.1557  1.00268868 25970
BADR-5                  
1 36592U 10025A   17184.17115701  .00000136  00000-0  00000-0 0  9997
2 36592   0.0258 117.0644 0003718  10.1105 241.7860  1.00273484 26108
COMS 1                  
1 36744U 10032A   17184.09493799 -.00000353  00000-0  00000-0 0  9993
2 36744   0.0114  47.9204 0000988  40.6707 355.0853  1.00272879 25852
ARABSAT-5A              
1 36745U 10032B   17184.03590944  .00000144  00000-0  00000-0 0  9995
2 36745   0.0490   6.0654 0003141  97.7682 220.8326  1.00269590 25843
ECHOSTAR 15             
1 36792U 10034A   17184.23355764 -.00000290  00000-0  00000-0 0  9993
2 36792   0.0098   6.2876 0002244  77.4483 220.1286  1.00273720 25572
NILESAT 201             
1 36830U 10037A   17184.04475412 -.00000067  00000-0  00000-0 0  9993
2 36830   0.0223 176.8975 0006402 279.7716 193.6921  1.00270189 25481
RASCOM-QAF 1R           
1 36831U 10037B   17184.21022522  .00000010  00000-0  00000-0 0  9990
2 36831   0.0257  31.3369 0003989  66.8704 261.8380  1.00269441 25509
CHINASAT 6A (ZX 6A)     
1 37150U 10042A   17184.10604856 -.00000363  00000-0  00000-0 0  9997
2 37150   0.0021 273.6219 0000427 122.8906  47.9666  1.00270006 25104
QZS-1 (MICHIBIKI)       
1 37158U 10045A   17184.26262120 -.00000130  00000-0  00000-0 0  9991
2 37158  40.8562 159.0925 0753722 270.3592  84.2286  1.00274327 24952
XM-5                    
1 37185U 10053A   17184.29583712 -.00000213  00000-0  00000-0 0  9998
2 37185   0.0182  22.7184 0001991 338.3038 301.7702  1.00271949 24693
BSAT-3B                 
1 37207U 10056B   17184.00601470 -.00000360  00000-0  00000-0 0  9990
2 37207   0.0519 322.3286 0001525  55.8080  15.0991  1.00273302 19453
BEIDOU G4               
1 37210U 10057A   17184.26157970 -.00000120  00000-0  00000-0 0  9998
2 37210   0.7465  44.5446 0003395 163.3713 327.7418  1.00272967 24493
SKYTERRA 1              
1 37218U 10061A   17183.42146834 -.00000126  00000-0  00000-0 0  9991
2 37218   3.2017 330.8420 0004788 169.9455 190.2600  1.00272209 24403
ZHONGXING-20A           
1 37234U 10064A   17183.39888322 -.00000348  00000-0  00000-0 0  9999
2 37234   0.0444 179.1850 0001202 176.5842 198.3127  1.00272195 24220
HYLAS 1                 
1 37237U 10065A   17184.23035458 -.00000241  00000-0  00000-0 0  9993
2 37237   0.0421 317.3893 0001634 133.8797 239.6426  1.00272969 24180
INTELSAT 17 (IS-17)     
1 37238U 10065B   17184.10516906 -.00000011  00000-0  00000-0 0  9997
2 37238   0.0010 339.8099 0002425 128.8761 276.4861  1.00272215 20627
EUTELSAT KA-SAT 9A      
1 37258U 10069A   17183.19617856  .00000050  00000-0  00000-0 0  9999
2 37258   0.0358 293.3139 0003360 195.4086 231.2961  1.00270563 24013
HISPASAT 1E             
1 37264U 10070A   17184.22549267 -.00000224  00000-0  00000-0 0  9997
2 37264   0.0531 113.2512 0005495   5.2969 214.0627  1.00271534 20380
KOREASAT 6              
1 37265U 10070B   17184.00115436 -.00000371  00000-0  00000-0 0  9994
2 37265   0.0237  70.1001 0001890  11.5424 315.9844  1.00272138 23970
BEIDOU IGSO 3           
1 37384U 11013A   17184.30913075 -.00000221  00000-0  10000-3 0  9990
2 37384  57.8432  72.7673 0026329 208.2504 230.8476  1.00256745 22881
INTELSAT NEW DAWN       
1 37392U 11016A   17183.99493772  .00000147  00000-0  00000-0 0  9995
2 37392   0.0410 200.8937 0001202 254.6483 216.6313  1.00275478 22715
YAHSAT 1A               
1 37393U 11016B   17184.22930749  .00000092  00000-0  00000-0 0  9992
2 37393   0.0188  20.8503 0002278  69.8433 325.7953  1.00272918  9603
TELSTAR 14R             
1 37602U 11021A   17184.26464451 -.00000288  00000-0  00000-0 0  9995
2 37602   0.0217 333.4457 0001268  78.2259 262.0700  1.00272223 23055
GSAT-8                  
1 37605U 11022A   17184.16857664  .00000076  00000-0  00000-0 0  9994
2 37605   0.0170  91.1465 0002634 205.0406 100.9243  1.00275082 22445
ST-2                    
1 37606U 11022B   17184.11438219 -.00000220  00000-0  00000-0 0  9993
2 37606   0.0204  85.7533 0000918  37.6979 287.0548  1.00271531 22468
CHINASAT 10 (ZX 10)     
1 37677U 11026A   17184.17337027 -.00000361  00000-0  00000-0 0  9992
2 37677   0.0643 272.4741 0003556 231.6511 310.1633  1.00270184 22172
TIANLIAN 1-02           
1 37737U 11032A   17184.27906524  .00000019  00000-0  00000-0 0  9990
2 37737   2.6225  77.3744 0003459 200.8465 280.4486  1.00273438 21928
GSAT-12                 
1 37746U 11034A   17184.11438219 -.00000174  00000-0  00000-0 0  9999
2 37746   0.0399 266.4660 0007999 185.7686 313.2586  1.00273052 22153
SES-3                   
1 37748U 11035A   17184.19141255 -.00000110  00000-0  00000-0 0  9991
2 37748   0.0097  12.7078 0002420  77.5577 157.0285  1.00271697 21811
KAZSAT-2                
1 37749U 11035B   17184.01573720 -.00000206  00000-0  00000-0 0  9995
2 37749   0.0435 189.7349 0001542 311.4459 232.1858  1.00270451 21770
ASTRA 1N                
1 37775U 11041A   17184.03038465  .00000111  00000-0  00000-0 0  9999
2 37775   0.0590  44.1658 0005207  26.4146 240.7827  1.00273944 11732
BSAT-3C (JCSAT-110R)    
1 37776U 11041B   17184.10462812 -.00000360  00000-0  00000-0 0  9992
2 37776   0.0116  55.2871 0000237 118.7863 254.8743  1.00272287 17699
PAKSAT-1R               
1 37779U 11042A   17184.23312132  .00000145  00000-0  00000-0 0  9999
2 37779   0.0493 125.7451 0003144 319.5685 317.9571  1.00277078 21676
CHINASAT 1A (ZX 1A)     
1 37804U 11047A   17183.39888322 -.00000347  00000-0  00000-0 0  9993
2 37804   0.0390 174.3161 0000869 257.0906 122.8783  1.00272613 21276
COSMOS 2473             
1 37806U 11048A   17184.30742101 -.00000116  00000-0  00000-0 0  9996
2 37806   0.0651  99.6008 0003205  12.9340 266.1336  1.00271690 21274
SES-2                   
1 37809U 11049A   17184.24563205 -.00000204  00000-0  00000-0 0  9997
2 37809   0.0234 317.5651 0002590 125.6113 199.6959  1.00272180 21227
ARABSAT-5C              
1 37810U 11049B   17184.03590944  .00000114  00000-0  00000-0 0  9995
2 37810   0.0623  23.1691 0002873  76.8509 214.1614  1.00274509 21256
EUTELSAT 7 WEST A       
1 37816U 11051A   17183.24134138 -.00000071  00000-0  00000-0 0  9998
2 37816   0.0558  12.1489 0003840 115.6004 232.2742  1.00272911 21101
QUETZSAT 1              
1 37826U 11054A   17184.20115986 -.00000250  00000-0  00000-0 0  9998
2 37826   0.0333 312.8068 0002985 146.2312 177.7848  1.00272931 21299
INTELSAT 18 (IS-18)     
1 37834U 11056A   17183.82545434  .00000043  00000-0  00000-0 0  9990
2 37834   0.0188  26.6128 0002120  70.1003 301.4859  1.00273773 21053
EUTELSAT 16A            
1 37836U 11057A   17184.04559927  .00000095  00000-0  00000-0 0  9997
2 37836   0.0629  20.2801 0004614  85.5375 207.8472  1.00273188 13191
VIASAT-1                
1 37843U 11059A   17184.26449188 -.00000032  00000-0  00000-0 0  9990
2 37843   0.0227  24.4929 0002680  69.8025 167.2918  1.00270694 14530
ASIASAT 7               
1 37933U 11069A   17184.10462812 -.00000343  00000-0  00000-0 0  9998
2 37933   0.0035 110.0780 0001900 321.2913 353.1041  1.00270286 20660
LUCH 5A                 
1 37951U 11074B   17184.31559344 -.00000053  00000-0  00000-0 0  9992
2 37951   1.5638 179.6317 0002893 255.8545 126.5685  1.00272420 20395
NIGCOMSAT 1R            
1 38014U 11077A   17182.85813194  .00000133  00000-0  00000-0 0  9997
2 38014   0.0520 126.3928 0000508 280.0176 225.0869  1.00270303 20148
FENGYUN 2F              
1 38049U 12002A   17183.46418593 -.00000368  00000-0  00000-0 0  9997
2 38049   1.7465  78.0639 0003855 188.6887 293.0635  1.00264715 20083
SES-4                   
1 38087U 12007A   17184.22549267 -.00000177  00000-0  00000-0 0  9990
2 38087   0.0169   0.0926 0002289  89.8024 250.7194  1.00270881 19479
BEIDOU G5               
1 38091U 12008A   17184.03688414  .00000045  00000-0  00000-0 0  9996
2 38091   2.2434  56.8891 0002318 206.2721  90.1465  1.00268010 19675
INTELSAT 22 (IS-22)     
1 38098U 12011A   17184.01851796 -.00000068  00000-0  00000-0 0  9996
2 38098   0.0161   4.1637 0001698 103.0810 252.7635  1.00270408 19255
APSTAR 7                
1 38107U 12013A   17183.85327014 -.00000111  00000-0  00000-0 0  9990
2 38107   0.0243  52.7085 0002380  44.6603 207.3767  1.00271606 19367
YAHSAT 1B               
1 38245U 12016A   17183.08915564  .00000115  00000-0  00000-0 0  9997
2 38245   0.0195   1.4263 0001906  75.2552 283.3397  1.00269495 19110
JCSAT-13                
1 38331U 12023A   17183.87480705 -.00000366  00000-0  00000-0 0  9991
2 38331   0.0253 301.6682 0002073 174.0068 244.3359  1.00272575 18732
VINASAT-2               
1 38332U 12023B   17184.09493799 -.00000338  00000-0  00000-0 0  9993
2 38332   0.0099  24.0325 0001802  73.3964 349.8911  1.00272529 18819
